{
  "type": "FeatureCollection",
  "features": [
    {
      "type": "Feature",
      "geometry": {
        "type": "Point",
        "coordinates": [
          4.3917,
          51.2293
        ]
      },
      "properties": {
        "id": null,
        "name": "Antwerp Berth 1",
        "last_modified": null,
        "berth_id": "ANT_001",
        "port": "Antwerp"
      }
    },
    {
      "type": "Feature",
      "geometry": {
        "type": "Point",
        "coordinates": [
          4.3842,
          51.2341
        ]
      },
      "properties": {
        "id": null,
        "name": "Antwerp Berth 2",
        "last_modified": null,
        "berth_id": "ANT_002",
        "port": "Antwerp"
      }
    },
    {
      "type": "Feature",
      "geometry": {
        "type": "Point",
        "coordinates": [
          4.3768,
          51.2387
        ]
      },
      "properties": {
        "id": null,
        "name": "Antwerp Berth 3",
        "last_modified": null,
        "berth_id": "ANT_003",
        "port": "Antwerp"
      }
    },
    {
      "type": "Feature",
      "geometry": {
        "type": "Point",
        "coordinates": [
          4.3695,
          51.2412
        ]
      },
      "properties": {
        "id": null,
        "name": "Antwerp Berth 4",
        "last_modified": null,
        "berth_id": "ANT_004",
        "port": "Antwerp"
      }
    },
    {
      "type": "Feature",
      "geometry": {
        "type": "Point",
        "coordinates": [
          8.6969,
          53.6969
        ]
      },
      "properties": {
        "id": null,
        "name": "Bremerhaven Berth 1",
        "last_modified": "2026-06-19T13:41:15Z",
        "berth_id": "BRV_001",
        "port": "Bremerhaven"
      }
    },
    {
      "type": "Feature",
      "geometry": {
        "type": "Point",
        "coordinates": [
          9.9371,
          53.5224
        ]
      },
      "properties": {
        "id": null,
        "name": "Hamburg Berth 1",
        "last_modified": null,
        "berth_id": "HBG_001",
        "port": "Hamburg"
      }
    },
    {
      "type": "Feature",
      "geometry": {
        "type": "Point",
        "coordinates": [
          9.9445,
          53.5198
        ]
      },
      "properties": {
        "id": null,
        "name": "Hamburg Berth 2",
        "last_modified": null,
        "berth_id": "HBG_002",
        "port": "Hamburg"
      }
    },
    {
      "type": "Feature",
      "geometry": {
        "type": "Point",
        "coordinates": [
          9.9512,
          53.5171
        ]
      },
      "properties": {
        "id": null,
        "name": "Hamburg Berth 3",
        "last_modified": null,
        "berth_id": "HBG_003",
        "port": "Hamburg"
      }
    },
    {
      "type": "Feature",
      "geometry": {
        "type": "Point",
        "coordinates": [
          10.0134,
          53.5389
        ]
      },
      "properties": {
        "id": null,
        "name": "Hamburg Berth 4",
        "last_modified": null,
        "berth_id": "HBG_004",
        "port": "Hamburg"
      }
    },
    {
      "type": "Feature",
      "geometry": {
        "type": "Point",
        "coordinates": [
          -1.0892,
          53.7174
        ]
      },
      "properties": {
        "id": null,
        "name": "Immingham Berth 1",
        "last_modified": null,
        "berth_id": "IMM_001",
        "port": "Immingham"
      }
    },
    {
      "type": "Feature",
      "geometry": {
        "type": "Point",
        "coordinates": [
          -1.0834,
          53.7201
        ]
      },
      "properties": {
        "id": null,
        "name": "Immingham Berth 2",
        "last_modified": null,
        "berth_id": "IMM_002",
        "port": "Immingham"
      }
    },
    {
      "type": "Feature",
      "geometry": {
        "type": "Point",
        "coordinates": [
          -1.0776,
          53.7228
        ]
      },
      "properties": {
        "id": null,
        "name": "Immingham Berth 3",
        "last_modified": null,
        "berth_id": "IMM_003",
        "port": "Immingham"
      }
    },
    {
      "type": "Feature",
      "geometry": {
        "type": "Point",
        "coordinates": [
          4.6513,
          51.8805
        ]
      },
      "properties": {
        "id": null,
        "name": "Rotterdam Berth 1",
        "last_modified": null,
        "berth_id": "RTM_001",
        "port": "Rotterdam"
      }
    },
    {
      "type": "Feature",
      "geometry": {
        "type": "Point",
        "coordinates": [
          4.6621,
          51.8791
        ]
      },
      "properties": {
        "id": null,
        "name": "Rotterdam Berth 2",
        "last_modified": null,
        "berth_id": "RTM_002",
        "port": "Rotterdam"
      }
    },
    {
      "type": "Feature",
      "geometry": {
        "type": "Point",
        "coordinates": [
          4.6734,
          51.882
        ]
      },
      "properties": {
        "id": null,
        "name": "Rotterdam Berth 3",
        "last_modified": null,
        "berth_id": "RTM_003",
        "port": "Rotterdam"
      }
    },
    {
      "type": "Feature",
      "geometry": {
        "type": "Point",
        "coordinates": [
          4.6845,
          51.8778
        ]
      },
      "properties": {
        "id": null,
        "name": "Rotterdam Berth 4",
        "last_modified": null,
        "berth_id": "RTM_004",
        "port": "Rotterdam"
      }
    },
    {
      "type": "Feature",
      "geometry": {
        "type": "Point",
        "coordinates": [
          4.6969,
          51.6969
        ]
      },
      "properties": {
        "id": null,
        "name": "Rotterdam Berth 5",
        "last_modified": "2026-06-18T14:21:28Z",
        "berth_id": "RTM_005",
        "port": "Rotterdam"
      }
    },
    {
      "type": "Feature",
      "geometry": {
        "type": "Point",
        "coordinates": [
          3.2041,
          51.3265
        ]
      },
      "properties": {
        "id": null,
        "name": "Zeebrugge Berth 1",
        "last_modified": null,
        "berth_id": "ZBR_001",
        "port": "Zeebrugge"
      }
    },
    {
      "type": "Feature",
      "geometry": {
        "type": "Point",
        "coordinates": [
          3.2118,
          51.3301
        ]
      },
      "properties": {
        "id": null,
        "name": "Zeebrugge Berth 2",
        "last_modified": null,
        "berth_id": "ZBR_002",
        "port": "Zeebrugge"
      }
    },
    {
      "type": "Feature",
      "geometry": {
        "type": "Point",
        "coordinates": [
          3.2203,
          51.3278
        ]
      },
      "properties": {
        "id": null,
        "name": "Zeebrugge Berth 3",
        "last_modified": null,
        "berth_id": "ZBR_003",
        "port": "Zeebrugge"
      }
    }
  ]
}
